satname,norad_id,inclination_deg,eccentricity,mean_motion_rev_per_day,perigee_km,apogee_km,l1,l2
STARLINK-1008,44714,53.1548,0.0002065,15.41528924,440.1880000592155,443.0045499017815,1 44714U 19074B   26112.00002315  .02008766  00000+0  41921-1 0  9990,2 44714  53.1548 336.5937 0002065 103.6119 334.9917 15.41528924  5875
STARLINK-1012,44718,53.1597,0.0001657,15.40855631,442.4524072657032,444.7131251962319,1 44718U 19074F   26112.00002315  .01143904  00000+0  25031-1 0  9991,2 44718  53.1597 336.9014 0001657  89.8441 337.1757 15.40855631  5876
STARLINK-1017,44723,53.0492,0.0003208,15.27858624,480.01412144262486,484.4157232359976,1 44723U 19074L   26111.89680675  .00039134  00000+0  14248-2 0  9991,2 44723  53.0492 331.5061 0003208 177.1315 182.9703 15.27858624355564
STARLINK-1019,44724,53.0344,0.000716,15.98719426,273.20491815810146,282.73646437199295,1 44724U 19074M   26112.00002315  .00355932  63779-4  73296-3 0  9998,2 44724  53.0344 276.4023 0007160 305.9425   2.7680 15.98719426  5963
STARLINK-1020,44725,53.1599,0.0001952,15.37826134,451.205610677167,453.8723065714139,1 44725U 19074N   26112.00002315  .01676382  00000+0  40266-1 0  9997,2 44725  53.1599   2.1867 0001952  90.3169 313.5924 15.37826134  5760
STARLINK-1036,44741,53.0446,0.0004675,15.64645054,371.10302643531577,377.41651741706755,1 44741U 19074AE  26111.90773458  .00044043  00000+0  44943-3 0  9996,2 44741  53.0446 337.8683 0004675 140.6164 219.5191 15.64645054355478
STARLINK-1039,44744,53.0652,0.0001774,15.2526984,488.7568724922776,491.1936787276645,1 44744U 19074AH  26111.45087202  .00033599  00000+0  13256-2 0  9990,2 44744  53.0652  18.0069 0001774  76.1819 283.9376 15.25269840354878
STARLINK-1042,44747,53.0425,8.73e-05,15.52074541,410.07726935555456,411.2625950459169,1 44747U 19074AL  26111.56893338  .00021303  00000+0  35373-3 0  9995,2 44747  53.0425 248.6973 0000873 332.5837  27.5126 15.52074541356725
STARLINK-1043,44748,53.0526,0.0002124,15.56516311,396.30928097353444,399.1876771250336,1 44748U 19074AM  26111.90884732  .00033553  00000+0  46962-3 0  9998,2 44748  53.0526 345.5120 0002124 153.5673 206.5446 15.56516311355373
STARLINK-1046,44751,53.0472,0.0001425,15.4902995,418.5938686190739,420.53121298820224,1 44751U 19074AQ  26111.98195711  .00058029  00000+0  10538-2 0  9996,2 44751  53.0472   4.3049 0001425 334.0115  26.0821 15.49029950355111
STARLINK-1047,44752,53.0706,0.0002904,15.33557755,463.2204081779564,467.19502278870914,1 44752U 19074AR  26111.84820510  .00007005  00000+0  22405-3 0  9999,2 44752  53.0706 304.2311 0002904  35.6988 324.4207 15.33557755355969
STARLINK-1048,44753,53.0489,0.0002727,15.61063209,382.7405061770005,386.42889459239086,1 44753U 19074AS  26111.77360119  .00056141  00000+0  65619-3 0  9995,2 44753  53.0489 319.7946 0002727 192.7663 167.3281 15.61063209355717
STARLINK-1063,44768,53.16,0.0001851,15.40321665,443.8962223104181,446.4222065690037,1 44768U 19074BH  26112.00002315  .01045920  00000+0  23482-1 0  9993,2 44768  53.1600  17.5605 0001851  85.2647 302.7591 15.40321665  5822
STARLINK-1067,44771,53.0467,0.0005633,15.65994442,366.57883254277203,374.18171210177115,1 44771U 19074BL  26111.95602329  .00091059  00000+0  86976-3 0  9993,2 44771  53.0467 352.8884 0005633 146.0313 214.1064 15.65994442355272
STARLINK-1068,44772,53.046,0.0003598,15.6932828,358.39463187403544,363.243984833528,1 44772U 19074BM  26111.93441853  .00056084  00000+0  47187-3 0  9995,2 44772  53.0460 327.0798 0003598  89.0705 271.0724 15.69328280355622
STARLINK-1114,44927,53.045,0.0004753,15.57746332,390.9622295206309,397.3999951182004,1 44927U 20001P   26111.95622782  .00079243  00000+0  10443-2 0  9999,2 44927  53.0450 120.4278 0004753 336.2883  23.7908 15.57746332346826
STARLINK-1123,44930,53.1465,0.000163,15.37112937,453.5379371428462,455.76542625307866,1 44930U 20001S   26112.00002315  .01912228  00000+0  47139-1 0  9995,2 44930  53.1465 143.8446 0001630  77.7934 269.6319 15.37112937  5878
STARLINK-1094,44941,53.1565,0.0001745,15.38428149,449.5652216623839,451.9485056207941,1 44941U 20001AD  26112.00002315  .01093136  00000+0  26003-1 0  9992,2 44941  53.1565 117.8938 0001745  92.9324 226.5687 15.38428149  5884
STARLINK-1122,44949,53.1578,0.0001774,15.35952041,456.8813847387364,459.30687954442146,1 44949U 20001AM  26112.00002315  .01918409  00000+0  49066-1 0  9993,2 44949  53.1578 118.3295 0001774  78.1774 260.9346 15.35952041  5878
STARLINK-1080,44961,53.049,0.0001511,15.54397796,402.8789608562638,404.9284935640271,1 44961U 20001AZ  26111.33927555  .00090215  00000+0  13430-2 0  9996,2 44961  53.0490  83.2425 0001511   2.4529 357.6488 15.54397796347293
STARLINK-1090,44968,53.1517,0.0002083,15.37674267,451.5657780687743,454.4116250360412,1 44968U 20001BG  26112.00002315  .00087876  00000+0  23244-2 0  9999,2 44968  53.1517 105.0616 0002083  85.1629 119.9003 15.37674267  5767
STARLINK-1132,45044,53.1552,0.0004105,15.49032547,416.7644905593752,422.34539564466195,1 45044U 20006A   26111.25566039  .00087959  00000+0  15868-2 0  9999,2 45044  53.1552  51.3854 0004105  45.0162 315.1179 15.49032547343517
STARLINK-1131,45047,53.1587,0.0001758,15.38499109,449.3464005948972,451.7473658482386,1 45047U 20006D   26112.00002315  .01043059  00000+0  24858-1 0  9990,2 45047  53.1587  79.5056 0001758  91.3801 227.8081 15.38499109  5626
STARLINK-1134,45048,53.0298,0.0003599,15.49144106,416.78221776242117,421.6749615138433,1 45048U 20006E   26111.08572727  .00077580  00000+0  13968-2 0  9993,2 45048  53.0298  35.8625 0003599 341.8133  18.2745 15.49144106343707
STARLINK-1156,45054,53.1586,0.0001499,15.31073082,471.5825159146989,473.6363696982535,1 45054U 20006L   26111.92652093  .00034632  00000+0  11447-2 0  9999,2 45054  53.1586  80.1167 0001499 112.1875 247.9286 15.31073082343164
STARLINK-1159,45057,53.0388,0.0002599,16.00338688,271.7513029682159,275.2088135150907,1 45057U 20006P   26110.05222306  .00315454  53216-4  59454-3 0  9992,2 45057  53.0388  24.0916 0002599 171.5481 188.5592 16.00338688343779
STARLINK-1166,45060,53.0493,0.0003044,15.52086764,408.5677880132944,412.7007919746429,1 45060U 20006S   26111.93962814  .00081407  00000+0  13196-2 0  9997,2 45060  53.0493  65.5191 0003044  56.1317 303.9981 15.52086764343368
STARLINK-1169,45061,53.157,0.000395,15.33621777,462.31421508907624,467.7203069552834,1 45061U 20006T   26111.33484601  .00051150  00000+0  15522-2 0  9992,2 45061  53.1570  82.4648 0003950  84.6578 275.4875 15.33621777343084
STARLINK-1171,45062,53.0441,0.0004688,15.68511026,359.99962043123196,366.3202604425851,1 45062U 20006U   26111.52922804  .00053452  00000+0  46535-3 0  9992,2 45062  53.0441  38.8324 0004688 101.2673 258.8870 15.68511026343700
STARLINK-1133,45064,53.161,0.0001552,15.31132711,471.36836806924293,473.4947845553306,1 45064U 20006W   26111.24616796  .00049001  00000+0  16086-2 0  9995,2 45064  53.1610  60.0783 0001552 109.6192 250.4976 15.31132711343392
STARLINK-1167,45071,53.1593,0.0003623,15.33304463,463.48172882056133,468.44096248181995,1 45071U 20006AD  26111.83872534  .00035197  00000+0  10847-2 0  9992,2 45071  53.1593  57.1253 0003623  96.5513 263.5902 15.33304463343482
STARLINK-1168,45072,53.1586,0.0001558,15.31070805,471.54888771215064,473.6835824201971,1 45072U 20006AE  26111.03182690  .00029318  00000+0  97160-3 0  9994,2 45072  53.1586  61.2897 0001558 104.9143 255.2031 15.31070805343358
STARLINK-1172,45074,53.1574,0.0003704,15.34144805,460.9277104572484,465.9959668769334,1 45074U 20006AG  26111.82629033  .00038826  00000+0  11635-2 0  9996,2 45074  53.1574  56.8576 0003704  96.0162 264.1263 15.34144805343483
STARLINK-1153,45080,53.1609,0.0004234,15.33253678,463.2146181080652,469.0103285620862,1 45080U 20006AN  26111.56206176  .00053000  00000+0  16262-2 0  9995,2 45080  53.1609  58.3360 0004234 106.6525 253.4942 15.33253678343446
STARLINK-1151,45081,53.0519,0.0004803,15.70986283,352.842546841538,359.3114328001602,1 45081U 20006AP  26111.14333857  .00069419  00000+0  54312-3 0  9997,2 45081  53.0519  30.4519 0004803 115.3329 244.8186 15.70986283343781
STARLINK-1185,45087,53.1616,0.0001949,15.40899746,442.1230367448361,444.7820923570989,1 45087U 20006AV  26111.49721212  .00052102  00000+0  12498-2 0  9996,2 45087  53.1616  41.4751 0001949 130.3611 229.7565 15.40899746343670
STARLINK-1183,45088,53.1611,0.0001442,15.31123947,471.4698618409793,473.44557335753507,1 45088U 20006AW  26111.52946615  .00032366  00000+0  10692-2 0  9991,2 45088  53.1611  43.5446 0001442 121.5957 238.5185 15.31123947343649
STARLINK-1152,45096,53.0396,0.000274,15.43475861,433.99310254697684,437.7271729784716,1 45096U 20006BE  26111.98083616  .00058187  00000+0  12786-2 0  9998,2 45096  53.0396   1.4328 0002740  60.1676 299.9601 15.43475861344268
STARLINK-1184,45098,53.0534,0.000141,15.12306773,528.1931687809711,530.141028536792,1 45098U 20006BG  26111.84875522  .00017524  00000+0  10150-2 0  9993,2 45098  53.0534  50.1759 0001410 276.3454  83.7377 15.12306773343563
STARLINK-1193,45100,53.0494,0.000629,15.62456104,376.3136684412557,384.81611542130577,1 45100U 20006BJ  26111.46661682  .00101579  00000+0  11134-2 0  9992,2 45100  53.0494  22.2952 0006290 112.7567 247.4112 15.62456104343921
STARLINK-1143,45179,53.0432,0.0004279,15.73722974,345.3893358447531,351.1457928709315,1 45179U 20012B   26112.00002315  .00145425  00000+0  99957-3 0  9996,2 45179  53.0432 116.2583 0004279 338.5137 243.3465 15.73722974  5923
STARLINK-1202,45183,53.1543,0.0001891,15.3089274,471.8518747661392,474.44303054613465,1 45183U 20012F   26111.53246764  .00032245  00000+0  10729-2 0  9990,2 45183  53.1543 200.2175 0001891  10.7865 349.3177 15.30892740341514
STARLINK-1216,45185,53.1579,0.0001657,15.31182771,471.14714749434916,473.4173764377647,1 45185U 20012H   26111.52070330  .00036515  00000+0  12018-2 0  9992,2 45185  53.1579 200.2285 0001657  24.3016 335.8063 15.31182771341450
